{"fetched_at":"2026-07-16T17:46:03.568Z","source":"https://celestrak.org/NORAD/elements/gp.php?GROUP=kuiper&FORMAT=JSON","constellation":"kuiper","records":[{"OBJECT_NAME":"KUIPER-00044","OBJECT_ID":"2025-134F","EPOCH":"2026-07-16T07:04:40.356192","CLASSIFICATION_TYPE":"U","MEAN_MOTION":14.79935735,"ECCENTRICITY":0.00007626,"INCLINATION":51.9004,"RA_OF_ASC_NODE":36.8621,"ARG_OF_PERICENTER":131.309,"MEAN_ANOMALY":228.7938,"EPHEMERIS_TYPE":0,"NORAD_CAT_ID":64505,"ELEMENT_SET_NO":999,"REV_AT_EPOCH":5894,"BSTAR":0.00023352489,"MEAN_MOTION_DOT":0.0000156,"MEAN_MOTION_DDOT":0},{"OBJECT_NAME":"KUIPER-00046","OBJECT_ID":"2025-134G","EPOCH":"2026-07-15T20:36:28.818432","CLASSIFICATION_TYPE":"U","MEAN_MOTION":14.79932924,"ECCENTRICITY":0.0000846,"INCLINATION":51.9004,"RA_OF_ASC_NODE":36.2677,"ARG_OF_PERICENTER":116.1348,"MEAN_ANOMALY":243.9701,"EPHEMERIS_TYPE":0,"NORAD_CAT_ID":64506,"ELEMENT_SET_NO":999,"REV_AT_EPOCH":5891,"BSTAR":0.00008216,"MEAN_MOTION_DOT":0.00000405,"MEAN_MOTION_DDOT":0},{"OBJECT_NAME":"KUIPER-00047","OBJECT_ID":"2025-134H","EPOCH":"2026-07-16T04:36:47.191104","CLASSIFICATION_TYPE":"U","MEAN_MOTION":14.79935167,"ECCENTRICITY":0.00006372,"INCLINATION":51.9019,"RA_OF_ASC_NODE":7.3177,"ARG_OF_PERICENTER":120.5687,"MEAN_ANOMALY":239.5338,"EPHEMERIS_TYPE":0,"NORAD_CAT_ID":64507,"ELEMENT_SET_NO":999,"REV_AT_EPOCH":5934,"BSTAR":0.00024079519,"MEAN_MOTION_DOT":0.00001615,"MEAN_MOTION_DDOT":0},{"OBJECT_NAME":"KUIPER-00048","OBJECT_ID":"2025-134J","EPOCH":"2026-07-15T21:19:11.548704","CLASSIFICATION_TYPE":"U","MEAN_MOTION":14.7994362,"ECCENTRICITY":0.00007,"INCLINATION":51.9004,"RA_OF_ASC_NODE":8.6741,"ARG_OF_PERICENTER":127.4633,"MEAN_ANOMALY":232.6393,"EPHEMERIS_TYPE":0,"NORAD_CAT_ID":64508,"ELEMENT_SET_NO":999,"REV_AT_EPOCH":5930,"BSTAR":0.00022298,"MEAN_MOTION_DOT":0.0000148,"MEAN_MOTION_DDOT":0},{"OBJECT_NAME":"KUIPER-00049","OBJECT_ID":"2025-134K","EPOCH":"2026-07-15T21:48:23.236992","CLASSIFICATION_TYPE":"U","MEAN_MOTION":14.79937549,"ECCENTRICITY":0.0000627,"INCLINATION":51.9011,"RA_OF_ASC_NODE":21.0499,"ARG_OF_PERICENTER":114.9027,"MEAN_ANOMALY":245.2,"EPHEMERIS_TYPE":0,"NORAD_CAT_ID":64509,"ELEMENT_SET_NO":999,"REV_AT_EPOCH":5913,"BSTAR":0.00023219,"MEAN_MOTION_DOT":0.0000155,"MEAN_MOTION_DDOT":0},{"OBJECT_NAME":"KUIPER-00050","OBJECT_ID":"2025-134L","EPOCH":"2026-07-16T04:44:32.826624","CLASSIFICATION_TYPE":"U","MEAN_MOTION":14.79938887,"ECCENTRICITY":0.00006541,"INCLINATION":51.9026,"RA_OF_ASC_NODE":2.2944,"ARG_OF_PERICENTER":125.7616,"MEAN_ANOMALY":234.3407,"EPHEMERIS_TYPE":0,"NORAD_CAT_ID":64510,"ELEMENT_SET_NO":999,"REV_AT_EPOCH":5942,"BSTAR":0.00023222048,"MEAN_MOTION_DOT":0.0000155,"MEAN_MOTION_DDOT":0},{"OBJECT_NAME":"KUIPER-00051","OBJECT_ID":"2025-134M","EPOCH":"2026-07-16T05:20:04.299072","CLASSIFICATION_TYPE":"U","MEAN_MOTION":14.79934879,"ECCENTRICITY":0.00007724,"INCLINATION":51.9021,"RA_OF_ASC_NODE":18.3573,"ARG_OF_PERICENTER":118.4901,"MEAN_ANOMALY":241.6139,"EPHEMERIS_TYPE":0,"NORAD_CAT_ID":64511,"ELEMENT_SET_NO":999,"REV_AT_EPOCH":5919,"BSTAR":0.000019948981,"MEAN_MOTION_DOT":-6.9e-7,"MEAN_MOTION_DDOT":0},{"OBJECT_NAME":"KUIPER-00053","OBJECT_ID":"2025-134P","EPOCH":"2026-07-15T11:59:27.876480","CLASSIFICATION_TYPE":"U","MEAN_MOTION":14.81687648,"ECCENTRICITY":0.000038,"INCLINATION":51.9008,"RA_OF_ASC_NODE":16.7909,"ARG_OF_PERICENTER":318.1173,"MEAN_ANOMALY":41.9761,"EPHEMERIS_TYPE":0,"NORAD_CAT_ID":64513,"ELEMENT_SET_NO":999,"REV_AT_EPOCH":5915,"BSTAR":0.00015352162,"MEAN_MOTION_DOT":0.00000996,"MEAN_MOTION_DDOT":0},{"OBJECT_NAME":"KUIPER-00054","OBJECT_ID":"2025-134Q","EPOCH":"2026-07-15T11:31:54.276384","CLASSIFICATION_TYPE":"U","MEAN_MOTION":14.79935769,"ECCENTRICITY":0.00007904,"INCLINATION":51.8998,"RA_OF_ASC_NODE":12.9564,"ARG_OF_PERICENTER":121.3355,"MEAN_ANOMALY":238.7685,"EPHEMERIS_TYPE":0,"NORAD_CAT_ID":64514,"ELEMENT_SET_NO":999,"REV_AT_EPOCH":5920,"BSTAR":0.00022754207,"MEAN_MOTION_DOT":0.00001514,"MEAN_MOTION_DDOT":0},{"OBJECT_NAME":"KUIPER-00055","OBJECT_ID":"2025-134R","EPOCH":"2026-07-15T16:48:45.556992","CLASSIFICATION_TYPE":"U","MEAN_MOTION":14.79934582,"ECCENTRICITY":0.00006008,"INCLINATION":51.9033,"RA_OF_ASC_NODE":324.6163,"ARG_OF_PERICENTER":126.6026,"MEAN_ANOMALY":233.4992,"EPHEMERIS_TYPE":0,"NORAD_CAT_ID":64515,"ELEMENT_SET_NO":999,"REV_AT_EPOCH":5990,"BSTAR":0.00024625614,"MEAN_MOTION_DOT":0.00001657,"MEAN_MOTION_DDOT":0},{"OBJECT_NAME":"KUIPER-00056","OBJECT_ID":"2025-134S","EPOCH":"2026-07-15T21:56:11.143104","CLASSIFICATION_TYPE":"U","MEAN_MOTION":14.79934819,"ECCENTRICITY":0.0000668,"INCLINATION":51.9039,"RA_OF_ASC_NODE":16.1347,"ARG_OF_PERICENTER":120.1172,"MEAN_ANOMALY":239.9856,"EPHEMERIS_TYPE":0,"NORAD_CAT_ID":64516,"ELEMENT_SET_NO":999,"REV_AT_EPOCH":5920,"BSTAR":0.00023507,"MEAN_MOTION_DOT":0.00001571,"MEAN_MOTION_DDOT":0},{"OBJECT_NAME":"KUIPER-00057","OBJECT_ID":"2025-134T","EPOCH":"2026-07-15T21:44:30.884064","CLASSIFICATION_TYPE":"U","MEAN_MOTION":14.79936568,"ECCENTRICITY":0.0000746,"INCLINATION":51.9,"RA_OF_ASC_NODE":23.6005,"ARG_OF_PERICENTER":121.5822,"MEAN_ANOMALY":238.5213,"EPHEMERIS_TYPE":0,"NORAD_CAT_ID":64517,"ELEMENT_SET_NO":999,"REV_AT_EPOCH":5909,"BSTAR":0.00025433,"MEAN_MOTION_DOT":0.00001718,"MEAN_MOTION_DDOT":0},{"OBJECT_NAME":"KUIPER-00058","OBJECT_ID":"2025-134U","EPOCH":"2026-07-15T21:03:39.716064","CLASSIFICATION_TYPE":"U","MEAN_MOTION":14.7993396,"ECCENTRICITY":0.0000702,"INCLINATION":51.902,"RA_OF_ASC_NODE":18.697,"ARG_OF_PERICENTER":125.7729,"MEAN_ANOMALY":234.3299,"EPHEMERIS_TYPE":0,"NORAD_CAT_ID":64518,"ELEMENT_SET_NO":999,"REV_AT_EPOCH":5916,"BSTAR":0.000039493,"MEAN_MOTION_DOT":8e-7,"MEAN_MOTION_DDOT":0},{"OBJECT_NAME":"KUIPER-00059","OBJECT_ID":"2025-134V","EPOCH":"2026-07-15T22:48:40.411008","CLASSIFICATION_TYPE":"U","MEAN_MOTION":14.79935826,"ECCENTRICITY":0.00006316,"INCLINATION":51.9005,"RA_OF_ASC_NODE":13.415,"ARG_OF_PERICENTER":111.733,"MEAN_ANOMALY":248.37,"EPHEMERIS_TYPE":0,"NORAD_CAT_ID":64519,"ELEMENT_SET_NO":999,"REV_AT_EPOCH":5924,"BSTAR":0.00024179871,"MEAN_MOTION_DOT":0.00001623,"MEAN_MOTION_DDOT":0},{"OBJECT_NAME":"KUIPER-00060","OBJECT_ID":"2025-134W","EPOCH":"2026-07-15T22:00:04.046400","CLASSIFICATION_TYPE":"U","MEAN_MOTION":14.79935261,"ECCENTRICITY":0.0000663,"INCLINATION":51.904,"RA_OF_ASC_NODE":13.6282,"ARG_OF_PERICENTER":119.2834,"MEAN_ANOMALY":240.8195,"EPHEMERIS_TYPE":0,"NORAD_CAT_ID":64520,"ELEMENT_SET_NO":999,"REV_AT_EPOCH":5922,"BSTAR":0.00023283,"MEAN_MOTION_DOT":0.00001554,"MEAN_MOTION_DDOT":0},{"OBJECT_NAME":"KUIPER-00061","OBJECT_ID":"2025-134X","EPOCH":"2026-07-16T05:06:03.730752","CLASSIFICATION_TYPE":"U","MEAN_MOTION":14.79922656,"ECCENTRICITY":0.00008269,"INCLINATION":51.9018,"RA_OF_ASC_NODE":19.7723,"ARG_OF_PERICENTER":115.5828,"MEAN_ANOMALY":244.5219,"EPHEMERIS_TYPE":0,"NORAD_CAT_ID":64521,"ELEMENT_SET_NO":999,"REV_AT_EPOCH":5916,"BSTAR":0.00024005622,"MEAN_MOTION_DOT":0.00001609,"MEAN_MOTION_DDOT":0}]}
