KUIPER-00044            
1 64505U 25134F   26197.29491153  .00001560  00000+0  23352-3 0  9993
2 64505  51.9004  36.8621 0000762 131.3090 228.7938 14.79935735 58947
KUIPER-00046            
1 64506U 25134G   26196.85866688  .00000405  00000+0  82160-4 0  9994
2 64506  51.9004  36.2677 0000846 116.1348 243.9701 14.79932924 58914
KUIPER-00047            
1 64507U 25134H   26197.19221286  .00001615  00000+0  24080-3 0  9992
2 64507  51.9019   7.3177 0000637 120.5687 239.5338 14.79935167 59345
KUIPER-00048            
1 64508U 25134J   26196.88832811  .00001480  00000+0  22298-3 0  9999
2 64508  51.9004   8.6741 0000700 127.4633 232.6393 14.79943620 59303
KUIPER-00049            
1 64509U 25134K   26196.90860228  .00001550  00000+0  23219-3 0  9998
2 64509  51.9011  21.0499 0000627 114.9027 245.2000 14.79937549 59136
KUIPER-00050            
1 64510U 25134L   26197.19760216  .00001550  00000+0  23222-3 0  9992
2 64510  51.9026   2.2944 0000654 125.7616 234.3407 14.79938887 59422
KUIPER-00051            
1 64511U 25134M   26197.22227198 -.00000069  00000+0  19949-4 0  9991
2 64511  51.9021  18.3573 0000772 118.4901 241.6139 14.79934879 59195
KUIPER-00053            
1 64513U 25134P   26196.49962820  .00000996  00000+0  15352-3 0  9990
2 64513  51.9008  16.7909 0000380 318.1173  41.9761 14.81687648 59152
KUIPER-00054            
1 64514U 25134Q   26196.48048931  .00001514  00000+0  22754-3 0  9999
2 64514  51.8998  12.9564 0000790 121.3355 238.7685 14.79935769 59200
KUIPER-00055            
1 64515U 25134R   26196.70052728  .00001657  00000+0  24626-3 0  9992
2 64515  51.9033 324.6163 0000600 126.6026 233.4992 14.79934582 59905
KUIPER-00056            
1 64516U 25134S   26196.91401786  .00001571  00000+0  23507-3 0  9990
2 64516  51.9039  16.1347 0000668 120.1172 239.9856 14.79934819 59200
KUIPER-00057            
1 64517U 25134T   26196.90591301  .00001718  00000+0  25433-3 0  9996
2 64517  51.9000  23.6005 0000746 121.5822 238.5213 14.79936568 59099
KUIPER-00058            
1 64518U 25134U   26196.87754301  .00000080  00000+0  39493-4 0  9997
2 64518  51.9020  18.6970 0000702 125.7729 234.3299 14.79933960 59160
KUIPER-00059            
1 64519U 25134V   26196.95046772  .00001623  00000+0  24180-3 0  9993
2 64519  51.9005  13.4150 0000631 111.7330 248.3700 14.79935826 59245
KUIPER-00060            
1 64520U 25134W   26196.91671350  .00001554  00000+0  23283-3 0  9993
2 64520  51.9040  13.6282 0000663 119.2834 240.8195 14.79935261 59227
KUIPER-00061            
1 64521U 25134X   26197.21254318  .00001609  00000+0  24006-3 0  9994
2 64521  51.9018  19.7723 0000826 115.5828 244.5219 14.79922656 59168
